{"type":"FeatureCollection","name":"Дніпропетровська область — райони (устрій 2020)","oblast":{"name":"Дніпропетровська область","geometry":{"type":"Polygon","coordinates":[[[34.1109,47.4739],[34.0072,47.4568],[33.9507,47.4592],[33.9475,47.5011],[33.9352,47.5168],[33.6433,47.4852],[33.6361,47.5129],[33.5888,47.5031],[33.5815,47.5323],[33.5929,47.5444],[33.59,47.5581],[33.6076,47.5609],[33.6059,47.5753],[33.5932,47.574],[33.5789,47.5989],[33.4749,47.5877],[33.4857,47.5455],[33.3238,47.525],[33.35,47.4935],[33.3137,47.4809],[33.3069,47.486],[33.3154,47.4912],[33.3105,47.5007],[33.2791,47.5181],[33.288,47.5347],[33.2827,47.5453],[33.2437,47.5306],[33.2162,47.5328],[33.2219,47.5414],[33.2187,47.5481],[33.2372,47.5652],[33.2329,47.5771],[33.2052,47.5687],[33.1866,47.5739],[33.1716,47.5668],[33.0929,47.5793],[33.0953,47.597],[32.9595,47.5915],[32.9705,47.6042],[32.99,47.6068],[32.989,47.6147],[33.0149,47.6209],[33.0118,47.6255],[32.9929,47.623],[32.9731,47.723],[33.0072,47.7271],[33.0069,47.7328],[33.0714,47.7393],[33.0669,47.7613],[33.0569,47.7607],[33.0498,47.7819],[33.0673,47.7856],[33.0566,47.832],[33.0819,47.8349],[33.0705,47.8834],[33.0865,47.8859],[33.0774,47.9204],[33.0153,47.91],[33.005,47.9144],[32.9933,47.9338],[33.0062,47.937],[32.9952,47.984],[33.0061,47.988],[33.0249,47.9841],[33.0212,48.0086],[33.0362,48.0129],[33.0332,48.03],[33.0379,48.0349],[33.1095,48.0442],[33.1042,48.049],[33.1054,48.0668],[33.1442,48.0662],[33.1534,48.0436],[33.1417,48.0784],[33.2391,48.0983],[33.235,48.1142],[33.2258,48.1155],[33.2209,48.1145],[33.2227,48.1076],[33.185,48.1055],[33.1816,48.1199],[33.2309,48.1285],[33.2264,48.1485],[33.2187,48.1476],[33.2135,48.1708],[33.2438,48.1729],[33.2481,48.1523],[33.2725,48.1546],[33.2761,48.1061],[33.2912,48.1023],[33.303,48.1111],[33.3028,48.1187],[33.3155,48.119],[33.317,48.1258],[33.2917,48.1513],[33.3155,48.1524],[33.316,48.1591],[33.431,48.1708],[33.43,48.1883],[33.4773,48.1934],[33.4764,48.2],[33.4964,48.2028],[33.4992,48.2135],[33.4894,48.2143],[33.4998,48.2169],[33.5021,48.2328],[33.5124,48.2317],[33.5181,48.2231],[33.5307,48.2246],[33.5362,48.2326],[33.5464,48.2375],[33.5344,48.2559],[33.5314,48.2765],[33.5136,48.2788],[33.5185,48.2846],[33.5093,48.2932],[33.5165,48.3285],[33.5039,48.3322],[33.4707,48.3257],[33.4761,48.3485],[33.4602,48.3538],[33.4593,48.3594],[33.4745,48.3695],[33.4682,48.3705],[33.4701,48.3865],[33.4977,48.3938],[33.4969,48.4043],[33.4872,48.4042],[33.4898,48.4264],[33.4692,48.5336],[33.4802,48.536],[33.4721,48.5457],[33.4834,48.5486],[33.4821,48.5569],[33.5101,48.5576],[33.5095,48.5684],[33.5838,48.5754],[33.589,48.5602],[33.6217,48.5671],[33.6097,48.5988],[33.6492,48.5992],[33.6586,48.5863],[33.7235,48.6145],[33.7428,48.6154],[33.7615,48.625],[33.7586,48.6426],[33.7637,48.6431],[33.7552,48.6563],[33.8004,48.6619],[33.8043,48.6879],[33.7504,48.6814],[33.7466,48.694],[33.7297,48.6924],[33.6831,48.7228],[33.6197,48.7268],[33.6078,48.7523],[33.5928,48.748],[33.5858,48.7541],[33.5779,48.7789],[33.5883,48.7809],[33.5823,48.7967],[33.6025,48.7991],[33.6053,48.7921],[33.6186,48.789],[33.655,48.7926],[33.6731,48.8151],[33.6908,48.8091],[33.7154,48.8137],[33.7236,48.7872],[33.7631,48.7977],[33.7711,48.7983],[33.7727,48.7919],[33.795,48.7941],[33.7922,48.8001],[33.8096,48.8029],[33.8191,48.7765],[33.8483,48.7715],[33.8524,48.7789],[33.8486,48.8017],[33.8625,48.8366],[33.8752,48.8433],[33.8919,48.903],[33.9272,48.88],[33.9847,48.8651],[34.0227,48.864],[34.0371,48.8422],[34.0746,48.8237],[34.1196,48.8227],[34.128,48.8141],[34.1217,48.7913],[34.1403,48.7782],[34.1746,48.7789],[34.203,48.7601],[34.2342,48.7563],[34.2487,48.7441],[34.2807,48.7446],[34.2973,48.7382],[34.2922,48.7239],[34.2975,48.7127],[34.3025,48.7117],[34.2931,48.7231],[34.3058,48.7269],[34.3016,48.7337],[34.3127,48.741],[34.3165,48.7575],[34.3098,48.7643],[34.3423,48.7838],[34.3246,48.7928],[34.3147,48.7853],[34.2977,48.7846],[34.296,48.8209],[34.3463,48.8245],[34.3233,48.829],[34.3256,48.8439],[34.3471,48.844],[34.3489,48.8563],[34.3368,48.857],[34.3384,48.8715],[34.3065,48.8848],[34.311,48.8891],[34.3012,48.8971],[34.3135,48.9424],[34.3544,48.9839],[34.3276,48.9997],[34.3457,49.0172],[34.3542,49.017],[34.3673,49.0362],[34.3966,49.0439],[34.3914,49.0504],[34.4166,49.0553],[34.4049,49.0753],[34.4028,49.095],[34.4648,49.0647],[34.4752,49.0727],[34.4984,49.0609],[34.5162,49.0721],[34.5404,49.0566],[34.5592,49.0551],[34.5729,49.0636],[34.5645,49.0725],[34.574,49.0961],[34.5912,49.0933],[34.5903,49.111],[34.6037,49.1101],[34.624,49.1234],[34.6485,49.0985],[34.6244,49.1246],[34.6472,49.1309],[34.6655,49.1188],[34.6825,49.1212],[34.6805,49.1281],[34.6929,49.1351],[34.7059,49.1301],[34.74,49.1443],[34.7659,49.1431],[34.7592,49.1683],[34.7849,49.18],[34.8048,49.1783],[34.8112,49.1657],[34.8244,49.1752],[34.8195,49.1865],[34.841,49.1905],[34.9002,49.1782],[34.8954,49.1682],[34.8706,49.1693],[34.8649,49.1611],[34.9024,49.1509],[34.9201,49.156],[34.9262,49.1829],[34.9362,49.1814],[34.9476,49.1934],[35.0083,49.1595],[35.0141,49.149],[35.0441,49.1563],[35.0491,49.1733],[35.0554,49.1754],[35.0734,49.1699],[35.0678,49.1667],[35.0718,49.159],[35.0812,49.16],[35.077,49.1496],[35.0849,49.1412],[35.0915,49.154],[35.1239,49.164],[35.1365,49.1577],[35.1324,49.153],[35.1461,49.1502],[35.162,49.1605],[35.188,49.1618],[35.2092,49.1512],[35.1913,49.1466],[35.1897,49.1374],[35.2294,49.1258],[35.1986,49.119],[35.1917,49.1095],[35.2284,49.0994],[35.2387,49.1127],[35.2571,49.1127],[35.2752,49.089],[35.2813,49.0954],[35.3059,49.0904],[35.3118,49.0789],[35.3029,49.0687],[35.3322,49.0604],[35.3435,49.0534],[35.3398,49.0472],[35.3702,49.038],[35.3843,49.0272],[35.4015,49.031],[35.4057,49.0259],[35.4008,49.0184],[35.4371,49.0118],[35.4486,48.9975],[35.4603,48.9959],[35.457,48.9888],[35.4778,48.9787],[35.4875,48.9802],[35.4853,48.9723],[35.5105,48.9832],[35.53,48.9755],[35.5291,48.9815],[35.5345,48.9819],[35.5722,48.9736],[35.585,48.9858],[35.6251,48.9824],[35.6241,48.9715],[35.6306,48.9636],[35.6423,48.9638],[35.6489,48.9738],[35.6912,48.9666],[35.6943,48.9434],[35.7132,48.9495],[35.7202,48.9655],[35.7334,48.9663],[35.7392,48.9622],[35.7391,48.9493],[35.7556,48.9473],[35.7608,48.9558],[35.7768,48.9486],[35.7854,48.9549],[35.7895,48.9455],[35.7993,48.9422],[35.7922,48.9362],[35.7996,48.9279],[35.8093,48.9281],[35.8108,48.9335],[35.8151,48.9295],[35.8075,48.94],[35.83,48.9508],[35.8561,48.9466],[35.8542,48.9571],[35.8788,48.963],[35.8835,48.9753],[35.9122,48.969],[35.9355,48.973],[35.9406,48.9773],[35.9297,48.9802],[35.94,48.9998],[35.9893,48.9701],[35.9769,48.9603],[36.0045,48.9455],[35.9953,48.9399],[36.0436,48.9166],[36.0121,48.8873],[36.0402,48.8736],[36.0205,48.8543],[36.077,48.835],[36.0686,48.8083],[36.1244,48.8083],[36.157,48.7848],[36.1525,48.7811],[36.1573,48.7682],[36.1404,48.7655],[36.1631,48.749],[36.1428,48.7242],[36.2836,48.6592],[36.2677,48.6487],[36.2666,48.6358],[36.2516,48.6218],[36.3186,48.5872],[36.2721,48.5443],[36.2958,48.5323],[36.2772,48.5138],[36.3257,48.5559],[36.3555,48.5397],[36.3505,48.5353],[36.356,48.5323],[36.393,48.5652],[36.3818,48.5702],[36.4412,48.6282],[36.4217,48.6356],[36.4478,48.6333],[36.4823,48.6629],[36.5612,48.6232],[36.5626,48.6167],[36.5795,48.6159],[36.5813,48.6074],[36.5901,48.6076],[36.5917,48.6023],[36.6565,48.6085],[36.6548,48.6161],[36.6751,48.6184],[36.6737,48.6251],[36.7398,48.6264],[36.7466,48.5968],[36.8055,48.5966],[36.8101,48.5688],[36.8589,48.5689],[36.8719,48.5502],[36.8827,48.5509],[36.8851,48.5428],[36.9013,48.5445],[36.9069,48.5225],[36.8502,48.5174],[36.8562,48.4871],[36.83,48.4847],[36.8365,48.443],[36.8466,48.4436],[36.8511,48.4182],[36.8362,48.4207],[36.8259,48.4129],[36.8346,48.4086],[36.8212,48.4063],[36.8269,48.3691],[36.8129,48.3662],[36.8155,48.3486],[36.8088,48.3476],[36.8171,48.3122],[36.871,48.3168],[36.874,48.3054],[36.9119,48.309],[36.9365,48.1941],[36.9054,48.1929],[36.8973,48.1865],[36.8942,48.1906],[36.888,48.1772],[36.873,48.1833],[36.8955,48.0771],[36.8775,48.0614],[36.8765,48.0511],[36.8576,48.0524],[36.854,48.0323],[36.8117,48.0396],[36.8029,48.0519],[36.783,48.0466],[36.7645,48.0551],[36.7428,48.0511],[36.7476,48.0621],[36.7262,48.0709],[36.7185,48.0843],[36.7125,48.0802],[36.6745,48.0906],[36.6639,48.0876],[36.6553,48.0993],[36.638,48.0939],[36.6519,48.0889],[36.622,48.0831],[36.6016,48.0906],[36.6044,48.0852],[36.5809,48.0788],[36.5876,48.076],[36.5884,48.066],[36.5786,48.0622],[36.586,48.0528],[36.5752,48.0399],[36.5904,48.0202],[36.5691,48.0112],[36.5899,48.0004],[36.5763,47.9982],[36.586,47.9564],[36.6284,47.9613],[36.6398,47.9199],[36.59,47.9212],[36.5919,47.9106],[36.5426,47.9055],[36.55,47.8773],[36.5772,47.8797],[36.5848,47.8475],[36.5213,47.8363],[36.5224,47.8282],[36.4563,47.824],[36.3766,47.8303],[36.3748,47.8384],[36.3247,47.8395],[36.3324,47.8206],[36.2975,47.8153],[36.2765,47.8154],[36.2669,47.8323],[36.1975,47.832],[36.1874,47.8411],[36.1953,47.86],[36.1774,47.8575],[36.1785,47.8499],[36.1216,47.8447],[36.0747,47.8492],[36.0687,47.8676],[36.0591,47.8685],[36.0545,47.8805],[36.081,47.8835],[36.0876,47.862],[36.1175,47.8655],[36.1294,47.8905],[36.1095,47.9247],[36.12,47.9285],[36.1099,47.9418],[36.0844,47.9303],[36.0731,47.9656],[36.0513,47.9592],[36.0483,47.9654],[36.07,47.9722],[36.063,48.0004],[36.0414,48.0039],[36.0345,48.019],[36.0657,48.0252],[36.0523,48.059],[35.9746,48.0439],[35.9878,48.0589],[35.9823,48.0629],[35.9735,48.0588],[35.9703,48.0732],[35.9848,48.0851],[35.9675,48.095],[35.8169,48.0658],[35.8067,48.1003],[35.7842,48.0936],[35.7427,48.0964],[35.7046,48.1407],[35.5233,48.0756],[35.5149,48.0965],[35.4495,48.1039],[35.4197,48.1008],[35.4173,48.1096],[35.337,48.1249],[35.2985,48.1436],[35.2737,48.1441],[35.244,48.1347],[35.2205,48.1429],[35.1941,48.1406],[35.1938,48.1433],[35.1782,48.131],[35.1009,48.1306],[35.0589,48.1215],[35.0392,48.0985],[34.9905,48.0894],[34.9868,48.0967],[34.9154,48.0907],[34.9105,48.1043],[34.9115,48.1132],[34.921,48.114],[34.9169,48.1311],[34.8812,48.1272],[34.878,48.1336],[34.8552,48.1331],[34.8751,48.0545],[34.8401,48.0506],[34.8475,48.0138],[34.859,48.0152],[34.8705,47.9831],[34.9055,47.9852],[34.9163,47.9342],[34.88,47.9289],[34.8771,47.942],[34.8496,47.9372],[34.8536,47.9217],[34.8027,47.9161],[34.8175,47.8647],[34.8635,47.8799],[34.8705,47.8517],[34.8974,47.8531],[34.9031,47.831],[34.8793,47.8207],[34.8939,47.7601],[34.9576,47.7698],[34.9645,47.7413],[34.9544,47.7402],[34.9561,47.7127],[34.9308,47.7118],[34.9382,47.6775],[34.9067,47.674],[34.916,47.6347],[34.932,47.6362],[34.9401,47.6032],[34.936,47.5921],[34.9256,47.5949],[34.9357,47.5834],[34.9275,47.5803],[34.9382,47.5809],[34.945,47.5744],[34.9344,47.5669],[34.9482,47.5712],[34.9596,47.5656],[34.9625,47.543],[34.9399,47.5266],[34.8777,47.5148],[34.8018,47.5367],[34.7332,47.5395],[34.6541,47.5594],[34.6007,47.5624],[34.5344,47.5565],[34.4698,47.5314],[34.2994,47.5187],[34.2353,47.4945],[34.1109,47.4739]],[[34.6485,49.0985],[34.672,49.0974],[34.6718,49.0977],[34.6485,49.0985]],[[36.2479,48.4794],[36.2445,48.4813],[36.2091,48.4461],[36.2479,48.4794]],[[36.103,48.3504],[35.8905,48.4094],[35.8885,48.4089],[36.103,48.3504]],[[35.8154,48.9239],[35.8186,48.9245],[35.8168,48.9271],[35.8154,48.9239]],[[35.8123,48.909],[35.8127,48.9177],[35.8112,48.9142],[35.8123,48.909]],[[35.7508,48.3208],[35.7485,48.3134],[35.756,48.321],[35.7508,48.3208]],[[35.7059,48.3332],[35.7103,48.3347],[35.7044,48.3347],[35.7059,48.3332]],[[35.6425,48.705],[35.675,48.7337],[35.6752,48.7373],[35.6425,48.705]],[[35.5336,48.4988],[35.5204,48.5323],[35.5192,48.5328],[35.5336,48.4988]],[[34.6063,48.2897],[34.5859,48.2834],[34.6065,48.2894],[34.6063,48.2897]],[[34.5978,48.3333],[34.5689,48.326],[34.5987,48.3312],[34.5978,48.3333]],[[34.2276,47.9623],[34.2377,47.9637],[34.1863,47.9621],[34.2276,47.9623]],[[34.223,48.0466],[34.2212,48.059],[34.2207,48.0589],[34.223,48.0466]],[[34.1427,47.9509],[34.1435,47.9481],[34.1445,47.9525],[34.1427,47.9509]],[[34.0982,47.9485],[34.0932,47.9471],[34.1228,47.9393],[34.0982,47.9485]],[[34.1228,47.9393],[34.1421,47.9417],[34.1423,47.9426],[34.1228,47.9393]],[[34.0837,47.9443],[34.0605,47.9235],[34.0882,47.9456],[34.0837,47.9443]],[[33.6139,48.3173],[33.5849,48.3165],[33.5755,48.3139],[33.6139,48.3173]]]}},"features":[{"type":"Feature","properties":{"name":"Синельниківський район","aliases":[],"center":[48.244,36.0587]},"geometry":{"type":"Polygon","coordinates":[[[36.5213,47.8363],[36.5224,47.8282],[36.4563,47.824],[36.3766,47.8303],[36.3748,47.8384],[36.3247,47.8395],[36.3324,47.8206],[36.2975,47.8153],[36.2765,47.8154],[36.2669,47.8323],[36.1975,47.832],[36.1874,47.8411],[36.1953,47.86],[36.1774,47.8575],[36.1785,47.8499],[36.1216,47.8447],[36.0747,47.8492],[36.0687,47.8676],[36.0591,47.8685],[36.0545,47.8805],[36.081,47.8835],[36.0876,47.862],[36.1175,47.8655],[36.1294,47.8905],[36.1095,47.9247],[36.12,47.9285],[36.1099,47.9418],[36.0844,47.9303],[36.0731,47.9656],[36.0513,47.9592],[36.0483,47.9654],[36.07,47.9722],[36.063,48.0004],[36.0414,48.0039],[36.0345,48.019],[36.0657,48.0252],[36.0523,48.059],[35.9746,48.0439],[35.9878,48.0589],[35.9823,48.0629],[35.9735,48.0588],[35.9703,48.0732],[35.9848,48.0851],[35.9675,48.095],[35.8169,48.0658],[35.8067,48.1003],[35.7842,48.0936],[35.7427,48.0964],[35.7046,48.1407],[35.5233,48.0756],[35.5149,48.0965],[35.4495,48.1039],[35.4197,48.1008],[35.4173,48.1096],[35.337,48.1249],[35.2985,48.1436],[35.2737,48.1441],[35.244,48.1347],[35.2205,48.1429],[35.1941,48.1406],[35.1892,48.1797],[35.1955,48.2359],[35.1831,48.2609],[35.1917,48.2642],[35.2161,48.252],[35.2304,48.2554],[35.2478,48.2785],[35.2493,48.2989],[35.2434,48.2987],[35.2541,48.3132],[35.2622,48.3112],[35.2818,48.3256],[35.2568,48.3524],[35.2778,48.3611],[35.2713,48.3666],[35.3092,48.3708],[35.2802,48.3853],[35.2803,48.3943],[35.269,48.3919],[35.2528,48.4075],[35.2689,48.4058],[35.267,48.411],[35.2537,48.4139],[35.2507,48.4248],[35.2355,48.4276],[35.2384,48.4329],[35.3032,48.4411],[35.315,48.4242],[35.3516,48.4391],[35.3478,48.4469],[35.3721,48.4552],[35.3304,48.5089],[35.3558,48.5174],[35.3668,48.505],[35.3847,48.5118],[35.3759,48.5264],[35.3966,48.5341],[35.403,48.5267],[35.4353,48.5377],[35.5157,48.5272],[35.5115,48.5359],[35.518,48.5357],[35.5336,48.4988],[35.5657,48.5043],[35.5597,48.5202],[35.6103,48.5294],[35.6063,48.5434],[35.6193,48.5463],[35.6384,48.5234],[35.6154,48.5109],[35.6479,48.4784],[35.6706,48.4912],[35.7069,48.4615],[35.7257,48.4719],[35.7328,48.4654],[35.748,48.4722],[35.7927,48.4361],[35.7767,48.427],[35.7836,48.4048],[35.7333,48.4006],[35.7483,48.3862],[35.7155,48.3684],[35.7019,48.3832],[35.6915,48.3798],[35.6999,48.3692],[35.6792,48.3606],[35.7059,48.3332],[35.7281,48.3408],[35.7392,48.3381],[35.7354,48.3349],[35.7495,48.3385],[35.7569,48.3363],[35.7487,48.3302],[35.756,48.321],[35.7508,48.3208],[35.7485,48.3134],[35.7541,48.3159],[35.7533,48.311],[35.7643,48.3075],[35.7539,48.2996],[35.7586,48.293],[35.7879,48.286],[35.7851,48.3095],[35.8149,48.3128],[35.8058,48.3548],[35.8275,48.357],[35.8239,48.3769],[35.8389,48.3801],[35.8406,48.3854],[35.8836,48.3909],[35.8664,48.4028],[35.8869,48.4093],[36.103,48.3504],[36.0462,48.4582],[36.1042,48.4422],[36.0999,48.4264],[36.1096,48.4251],[36.1108,48.4195],[36.1554,48.4429],[36.1873,48.4361],[36.2022,48.4486],[36.2091,48.4461],[36.2479,48.4794],[36.2416,48.4829],[36.3257,48.5559],[36.3555,48.5397],[36.3505,48.5353],[36.356,48.5323],[36.393,48.5652],[36.3818,48.5702],[36.4412,48.6282],[36.4217,48.6356],[36.4478,48.6333],[36.4823,48.6629],[36.5612,48.6232],[36.5626,48.6167],[36.5795,48.6159],[36.5813,48.6074],[36.5901,48.6076],[36.5917,48.6023],[36.6565,48.6085],[36.6548,48.6161],[36.6751,48.6184],[36.6737,48.6251],[36.7398,48.6264],[36.7466,48.5968],[36.8055,48.5966],[36.8101,48.5688],[36.8589,48.5689],[36.8719,48.5502],[36.8827,48.5509],[36.8851,48.5428],[36.9013,48.5445],[36.9069,48.5225],[36.8502,48.5174],[36.8562,48.4871],[36.83,48.4847],[36.8365,48.443],[36.8466,48.4436],[36.8511,48.4182],[36.8362,48.4207],[36.8259,48.4129],[36.8346,48.4086],[36.8212,48.4063],[36.8269,48.3691],[36.8129,48.3662],[36.8155,48.3486],[36.8088,48.3476],[36.8171,48.3122],[36.871,48.3168],[36.874,48.3054],[36.9119,48.309],[36.9365,48.1941],[36.9054,48.1929],[36.8973,48.1865],[36.8942,48.1906],[36.888,48.1772],[36.873,48.1833],[36.8955,48.0771],[36.8775,48.0614],[36.8765,48.0511],[36.8576,48.0524],[36.854,48.0323],[36.8117,48.0396],[36.8029,48.0519],[36.783,48.0466],[36.7645,48.0551],[36.7428,48.0511],[36.7476,48.0621],[36.7262,48.0709],[36.7185,48.0843],[36.7125,48.0802],[36.6745,48.0906],[36.6639,48.0876],[36.6553,48.0993],[36.638,48.0939],[36.6519,48.0889],[36.622,48.0831],[36.6016,48.0906],[36.6044,48.0852],[36.5809,48.0788],[36.5876,48.076],[36.5884,48.066],[36.5786,48.0622],[36.586,48.0528],[36.5752,48.0399],[36.5904,48.0202],[36.5691,48.0112],[36.5899,48.0004],[36.5763,47.9982],[36.586,47.9564],[36.6284,47.9613],[36.6398,47.9199],[36.59,47.9212],[36.5919,47.9106],[36.5426,47.9055],[36.55,47.8773],[36.5772,47.8797],[36.5848,47.8475],[36.5213,47.8363]]]}},{"type":"Feature","properties":{"name":"Дніпровський район","aliases":[],"center":[48.5281,34.9653]},"geometry":{"type":"Polygon","coordinates":[[[34.5927,48.3086],[34.5704,48.3187],[34.574,48.3214],[34.5689,48.326],[34.5987,48.3312],[34.562,48.4205],[34.5508,48.4273],[34.5349,48.4264],[34.5359,48.4404],[34.5109,48.4416],[34.5127,48.4573],[34.5526,48.4568],[34.5575,48.463],[34.5896,48.4509],[34.6263,48.4576],[34.6309,48.4521],[34.6317,48.4584],[34.6438,48.4564],[34.6415,48.4668],[34.6584,48.4727],[34.6635,48.4669],[34.656,48.4639],[34.6725,48.4641],[34.6943,48.4517],[34.6836,48.4433],[34.7009,48.4382],[34.7119,48.4472],[34.7012,48.4534],[34.7018,48.4718],[34.7245,48.4638],[34.7431,48.4408],[34.7608,48.4399],[34.7595,48.453],[34.7695,48.4744],[34.7513,48.4839],[34.7652,48.4851],[34.7665,48.4912],[34.7332,48.5001],[34.6804,48.5352],[34.5845,48.5432],[34.5814,48.5538],[34.5691,48.5595],[34.5718,48.584],[34.6361,48.5889],[34.6327,48.6007],[34.6117,48.6074],[34.6135,48.6214],[34.6006,48.6296],[34.5645,48.6098],[34.554,48.6137],[34.5309,48.6033],[34.5588,48.583],[34.5454,48.5549],[34.515,48.5792],[34.4586,48.5965],[34.4408,48.6152],[34.4368,48.6409],[34.399,48.6485],[34.3568,48.6706],[34.353,48.6779],[34.3601,48.6906],[34.3529,48.7012],[34.3058,48.7076],[34.2931,48.7231],[34.3058,48.7269],[34.3016,48.7337],[34.3127,48.741],[34.3165,48.7575],[34.3098,48.7643],[34.3423,48.7838],[34.3246,48.7928],[34.3147,48.7853],[34.2977,48.7846],[34.296,48.8209],[34.3463,48.8245],[34.3233,48.829],[34.3256,48.8439],[34.3471,48.844],[34.3489,48.8563],[34.3368,48.857],[34.3384,48.8715],[34.3065,48.8848],[34.311,48.8891],[34.3012,48.8971],[34.3135,48.9424],[34.3544,48.9839],[34.3276,48.9997],[34.3457,49.0172],[34.3542,49.017],[34.3673,49.0362],[34.3966,49.0439],[34.3914,49.0504],[34.4166,49.0553],[34.4049,49.0753],[34.4028,49.095],[34.4648,49.0647],[34.4752,49.0727],[34.4984,49.0609],[34.5162,49.0721],[34.5404,49.0566],[34.5592,49.0551],[34.5729,49.0636],[34.5645,49.0725],[34.574,49.0961],[34.5912,49.0933],[34.5903,49.111],[34.6037,49.1101],[34.624,49.1234],[34.6485,49.0985],[34.672,49.0974],[34.6873,49.0727],[34.6762,49.0666],[34.6801,49.062],[34.6566,49.0525],[34.6691,49.0388],[34.6926,49.0475],[34.7394,48.9955],[34.7297,48.9903],[34.7534,48.9674],[34.7444,48.9631],[34.7582,48.9471],[34.7405,48.9403],[34.7881,48.9134],[34.7799,48.9036],[34.7858,48.8986],[34.7357,48.8688],[34.7378,48.8526],[34.7655,48.8449],[34.7689,48.8242],[34.7782,48.8196],[34.7731,48.7909],[34.7924,48.778],[34.7869,48.7565],[34.81,48.7552],[34.8384,48.7767],[34.826,48.7833],[34.8287,48.7924],[34.8491,48.8058],[34.8416,48.8226],[34.8632,48.8284],[34.8761,48.8227],[34.8911,48.8335],[34.9075,48.8224],[34.9081,48.8157],[34.8967,48.8097],[34.9293,48.7833],[34.955,48.7932],[34.9478,48.7811],[34.9547,48.7659],[34.928,48.7529],[34.9644,48.7269],[34.9602,48.7183],[34.951,48.7241],[34.9303,48.7208],[34.9281,48.7098],[34.9392,48.7019],[34.9719,48.722],[34.9873,48.713],[34.9809,48.7088],[35.0079,48.6924],[35.022,48.7013],[35.0679,48.7558],[35.1608,48.7323],[35.1551,48.707],[35.1369,48.6997],[35.1609,48.6736],[35.1318,48.6616],[35.1387,48.6489],[35.1594,48.6602],[35.1689,48.6573],[35.2005,48.6657],[35.2124,48.6521],[35.1951,48.657],[35.1848,48.6507],[35.1627,48.6116],[35.1728,48.598],[35.1442,48.5858],[35.1527,48.5794],[35.1609,48.5832],[35.2345,48.5445],[35.2416,48.521],[35.2543,48.5172],[35.2806,48.4861],[35.2985,48.492],[35.3132,48.4737],[35.2877,48.4625],[35.3032,48.4411],[35.2384,48.4329],[35.2355,48.4276],[35.2507,48.4248],[35.2537,48.4139],[35.267,48.411],[35.2689,48.4058],[35.2528,48.4075],[35.269,48.3919],[35.2803,48.3943],[35.2802,48.3853],[35.3092,48.3708],[35.2713,48.3666],[35.2778,48.3611],[35.2568,48.3524],[35.2818,48.3256],[35.2622,48.3112],[35.2541,48.3132],[35.2434,48.2987],[35.2493,48.2989],[35.2478,48.2785],[35.2304,48.2554],[35.2161,48.252],[35.1917,48.2642],[35.1831,48.2609],[35.1955,48.2359],[35.1892,48.1797],[35.197,48.1459],[35.1782,48.131],[35.1009,48.1306],[35.0589,48.1215],[35.0392,48.0985],[34.9905,48.0894],[34.9868,48.0967],[34.9154,48.0907],[34.9105,48.1043],[34.9115,48.1132],[34.921,48.114],[34.9169,48.1311],[34.8812,48.1272],[34.878,48.1336],[34.8552,48.1331],[34.8751,48.0545],[34.8401,48.0506],[34.8475,48.0136],[34.8199,48.0104],[34.8207,47.9968],[34.769,47.9955],[34.7438,47.9858],[34.7309,48.0262],[34.6029,48.0136],[34.6097,47.9821],[34.5871,47.9797],[34.5906,47.9625],[34.5313,47.9512],[34.5324,47.94],[34.4934,47.9355],[34.4945,47.9288],[34.4529,47.9243],[34.4404,47.9537],[34.4176,47.9518],[34.4194,47.9441],[34.3737,47.9393],[34.3755,47.9293],[34.4077,47.9339],[34.4082,47.9281],[34.3418,47.9194],[34.3374,47.9334],[34.3193,47.9305],[34.3066,47.9491],[34.3014,47.9793],[34.2351,47.9755],[34.2377,47.9637],[34.1863,47.9621],[34.1844,47.9705],[34.1992,47.9727],[34.1978,48.0015],[34.2099,48.0041],[34.2082,48.0144],[34.2236,48.0174],[34.2212,48.0273],[34.2373,48.029],[34.2311,48.0479],[34.223,48.0466],[34.2212,48.059],[34.202,48.0564],[34.196,48.0681],[34.2283,48.0727],[34.2322,48.0672],[34.29,48.0787],[34.2809,48.1094],[34.2958,48.1164],[34.3755,48.1308],[34.3818,48.1203],[34.3889,48.1263],[34.4292,48.1293],[34.4268,48.1401],[34.4102,48.142],[34.4105,48.1547],[34.4438,48.1558],[34.4541,48.1688],[34.4384,48.1724],[34.4389,48.1651],[34.3944,48.1603],[34.3829,48.2063],[34.399,48.207],[34.4027,48.1934],[34.4351,48.1966],[34.4267,48.2341],[34.4557,48.2368],[34.4546,48.245],[34.4619,48.2413],[34.474,48.2645],[34.5081,48.2551],[34.5179,48.2675],[34.5313,48.2655],[34.5288,48.2728],[34.5578,48.2724],[34.5645,48.252],[34.5915,48.2539],[34.5859,48.2834],[34.6065,48.2894],[34.5927,48.3086]]]}},{"type":"Feature","properties":{"name":"Новомосковський район","aliases":["Самарівський район"],"center":[48.8078,35.2876]},"geometry":{"type":"Polygon","coordinates":[[[35.3847,48.5118],[35.3668,48.505],[35.3558,48.5174],[35.3304,48.5089],[35.3721,48.4552],[35.3478,48.4469],[35.3516,48.4391],[35.315,48.4242],[35.2877,48.4625],[35.3132,48.4737],[35.2985,48.492],[35.2806,48.4861],[35.2543,48.5172],[35.2416,48.521],[35.2345,48.5445],[35.1609,48.5832],[35.1527,48.5794],[35.1442,48.5858],[35.1728,48.598],[35.1627,48.6116],[35.1848,48.6507],[35.1951,48.657],[35.2124,48.6521],[35.2005,48.6657],[35.1689,48.6573],[35.1594,48.6602],[35.1387,48.6489],[35.1318,48.6616],[35.1609,48.6736],[35.1369,48.6997],[35.1551,48.707],[35.1608,48.7323],[35.0679,48.7558],[35.022,48.7013],[35.0079,48.6924],[34.9809,48.7088],[34.9873,48.713],[34.9719,48.722],[34.9392,48.7019],[34.9281,48.7098],[34.9303,48.7208],[34.951,48.7241],[34.9602,48.7183],[34.9644,48.7269],[34.928,48.7529],[34.9547,48.7659],[34.9478,48.7811],[34.955,48.7932],[34.9293,48.7833],[34.8967,48.8097],[34.9081,48.8157],[34.9075,48.8224],[34.8911,48.8335],[34.8761,48.8227],[34.8632,48.8284],[34.8416,48.8226],[34.8491,48.8058],[34.8287,48.7924],[34.826,48.7833],[34.8384,48.7767],[34.81,48.7552],[34.7869,48.7565],[34.7924,48.778],[34.7731,48.7909],[34.7782,48.8196],[34.7689,48.8242],[34.7655,48.8449],[34.7378,48.8526],[34.7357,48.8688],[34.7858,48.8986],[34.7799,48.9036],[34.7881,48.9134],[34.7405,48.9403],[34.7582,48.9471],[34.7444,48.9631],[34.7534,48.9674],[34.7297,48.9903],[34.7394,48.9955],[34.6926,49.0475],[34.6691,49.0388],[34.6566,49.0525],[34.6801,49.062],[34.6762,49.0666],[34.6873,49.0727],[34.6718,49.0977],[34.6485,49.0985],[34.6244,49.1246],[34.6472,49.1309],[34.6655,49.1188],[34.6825,49.1212],[34.6805,49.1281],[34.6929,49.1351],[34.7059,49.1301],[34.74,49.1443],[34.7659,49.1431],[34.7592,49.1683],[34.7849,49.18],[34.8048,49.1783],[34.8112,49.1657],[34.8244,49.1752],[34.8195,49.1865],[34.841,49.1905],[34.9002,49.1782],[34.8954,49.1682],[34.8706,49.1693],[34.8649,49.1611],[34.9024,49.1509],[34.9201,49.156],[34.9262,49.1829],[34.9362,49.1814],[34.9476,49.1934],[35.0083,49.1595],[35.0141,49.149],[35.0441,49.1563],[35.0491,49.1733],[35.0554,49.1754],[35.0734,49.1699],[35.0678,49.1667],[35.0718,49.159],[35.0812,49.16],[35.077,49.1496],[35.0849,49.1412],[35.0915,49.154],[35.1239,49.164],[35.1365,49.1577],[35.1324,49.153],[35.1461,49.1502],[35.162,49.1605],[35.188,49.1618],[35.2092,49.1512],[35.1913,49.1466],[35.1897,49.1374],[35.2294,49.1258],[35.1986,49.119],[35.1917,49.1095],[35.2284,49.0994],[35.2387,49.1127],[35.2571,49.1127],[35.2752,49.089],[35.2813,49.0954],[35.3059,49.0904],[35.3118,49.0789],[35.3029,49.0687],[35.3322,49.0604],[35.3435,49.0534],[35.3398,49.0472],[35.3702,49.038],[35.3843,49.0272],[35.4015,49.031],[35.4057,49.0259],[35.4008,49.0184],[35.4371,49.0118],[35.4486,48.9975],[35.4603,48.9959],[35.457,48.9888],[35.4778,48.9787],[35.4875,48.9802],[35.4853,48.9723],[35.5105,48.9832],[35.53,48.9755],[35.5291,48.9815],[35.5345,48.9819],[35.5722,48.9736],[35.585,48.9858],[35.6251,48.9824],[35.6241,48.9715],[35.6306,48.9636],[35.6423,48.9638],[35.6489,48.9738],[35.6912,48.9666],[35.6943,48.9434],[35.7132,48.9495],[35.7202,48.9655],[35.7334,48.9663],[35.7392,48.9622],[35.7391,48.9493],[35.7556,48.9473],[35.7608,48.9558],[35.7768,48.9486],[35.7854,48.9549],[35.7895,48.9455],[35.7993,48.9422],[35.7922,48.9362],[35.7996,48.9279],[35.8093,48.9281],[35.8108,48.9335],[35.817,48.9276],[35.8112,48.9142],[35.8156,48.8929],[35.8079,48.876],[35.7548,48.8763],[35.7572,48.8859],[35.7284,48.8873],[35.6804,48.8822],[35.6439,48.888],[35.6436,48.8821],[35.6368,48.8823],[35.6395,48.869],[35.6504,48.8694],[35.6854,48.847],[35.6797,48.8426],[35.6691,48.8482],[35.647,48.8308],[35.6794,48.8111],[35.6705,48.8021],[35.6824,48.7949],[35.6608,48.7693],[35.6768,48.7605],[35.6765,48.7385],[35.6425,48.705],[35.6185,48.7015],[35.5994,48.6875],[35.6033,48.6843],[35.5824,48.6691],[35.5928,48.6633],[35.5552,48.6425],[35.5673,48.6376],[35.5632,48.6298],[35.5469,48.6314],[35.5443,48.6177],[35.55,48.6187],[35.5553,48.5952],[35.5258,48.5997],[35.5532,48.5388],[35.5204,48.5323],[35.5115,48.5359],[35.5157,48.5272],[35.4353,48.5377],[35.403,48.5267],[35.3966,48.5341],[35.3795,48.5277],[35.3847,48.5118]]]}},{"type":"Feature","properties":{"name":"Криворізький район","aliases":[],"center":[47.8901,33.546]},"geometry":{"type":"Polygon","coordinates":[[[33.9507,47.4592],[33.9475,47.5011],[33.9352,47.5168],[33.6433,47.4852],[33.6361,47.5129],[33.5888,47.5031],[33.5815,47.5323],[33.5929,47.5444],[33.59,47.5581],[33.6076,47.5609],[33.6059,47.5753],[33.5932,47.574],[33.5789,47.5989],[33.4749,47.5877],[33.4857,47.5455],[33.3238,47.525],[33.35,47.4935],[33.3137,47.4809],[33.3069,47.486],[33.3154,47.4912],[33.3105,47.5007],[33.2791,47.5181],[33.288,47.5347],[33.2827,47.5453],[33.2437,47.5306],[33.2162,47.5328],[33.2219,47.5414],[33.2187,47.5481],[33.2372,47.5652],[33.2329,47.5771],[33.2052,47.5687],[33.1866,47.5739],[33.1716,47.5668],[33.0929,47.5793],[33.0953,47.597],[32.9595,47.5915],[32.9705,47.6042],[32.99,47.6068],[32.989,47.6147],[33.0149,47.6209],[33.0118,47.6255],[32.9929,47.623],[32.9731,47.723],[33.0072,47.7271],[33.0069,47.7328],[33.0714,47.7393],[33.0669,47.7613],[33.0569,47.7607],[33.0498,47.7819],[33.0673,47.7856],[33.0566,47.832],[33.0819,47.8349],[33.0705,47.8834],[33.0865,47.8859],[33.0774,47.9204],[33.0153,47.91],[33.005,47.9144],[32.9933,47.9338],[33.0062,47.937],[32.9952,47.984],[33.0061,47.988],[33.0249,47.9841],[33.0212,48.0086],[33.0362,48.0129],[33.0332,48.03],[33.0379,48.0349],[33.1095,48.0442],[33.1042,48.049],[33.1054,48.0668],[33.1442,48.0662],[33.1534,48.0436],[33.1417,48.0784],[33.2391,48.0983],[33.235,48.1142],[33.2258,48.1155],[33.2209,48.1145],[33.2227,48.1076],[33.185,48.1055],[33.1816,48.1199],[33.2309,48.1285],[33.2264,48.1485],[33.2187,48.1476],[33.2135,48.1708],[33.2438,48.1729],[33.2481,48.1523],[33.2725,48.1546],[33.2761,48.1061],[33.2912,48.1023],[33.303,48.1111],[33.3028,48.1187],[33.3155,48.119],[33.317,48.1258],[33.2917,48.1513],[33.3155,48.1524],[33.316,48.1591],[33.431,48.1708],[33.43,48.1883],[33.4773,48.1934],[33.4764,48.2],[33.4964,48.2028],[33.4992,48.2135],[33.4894,48.2143],[33.4998,48.2169],[33.5021,48.2328],[33.5124,48.2317],[33.5181,48.2231],[33.5307,48.2246],[33.5362,48.2326],[33.5775,48.2523],[33.5713,48.304],[33.5755,48.3139],[33.6139,48.3173],[33.6224,48.2916],[33.5938,48.2625],[33.6002,48.24],[33.6259,48.2444],[33.6226,48.2498],[33.6381,48.256],[33.6692,48.2603],[33.6744,48.2508],[33.6845,48.2506],[33.7404,48.2586],[33.7469,48.2623],[33.7397,48.2822],[33.771,48.2863],[33.7798,48.2573],[33.8079,48.263],[33.8119,48.2559],[33.8328,48.2515],[33.8396,48.2593],[33.8754,48.2592],[33.8853,48.2193],[33.923,48.2235],[33.9299,48.201],[33.9415,48.2017],[33.9453,48.1882],[33.9357,48.1793],[33.966,48.1831],[33.9654,48.188],[34.0044,48.185],[34.0163,48.1417],[34.0588,48.1513],[34.0847,48.102],[34.1102,48.1022],[34.1568,48.0723],[34.1831,48.0759],[34.1776,48.0683],[34.1833,48.0682],[34.1874,48.0565],[34.2206,48.0592],[34.223,48.0466],[34.2311,48.0479],[34.2373,48.029],[34.2212,48.0273],[34.2236,48.0174],[34.2082,48.0144],[34.2099,48.0041],[34.1978,48.0015],[34.1992,47.9727],[34.1615,47.9672],[34.1427,47.9509],[34.145,47.9431],[34.1228,47.9393],[34.0982,47.9485],[34.0837,47.9443],[34.0605,47.9235],[34.057,47.9327],[34.0121,47.9286],[34.0163,47.9052],[33.9997,47.9029],[34.0073,47.8942],[34.003,47.872],[34.0251,47.8728],[34.0431,47.8069],[34.065,47.8092],[34.0671,47.7955],[34.0336,47.7712],[34.0213,47.7496],[33.9598,47.7429],[33.9568,47.7227],[33.9299,47.7203],[33.937,47.7149],[33.9286,47.693],[33.9367,47.6941],[33.9831,47.6654],[34.0414,47.6685],[34.054,47.6583],[34.0524,47.6539],[34.0452,47.6599],[34.0242,47.6495],[34.0439,47.6349],[34.0688,47.6346],[34.0513,47.6144],[34.0888,47.5968],[34.0788,47.5908],[34.0782,47.5846],[34.0833,47.5845],[34.0753,47.5764],[34.0541,47.5761],[34.0465,47.5698],[34.0772,47.5531],[34.1093,47.5526],[34.1109,47.4739],[34.0072,47.4568],[33.9507,47.4592]]]}},{"type":"Feature","properties":{"name":"Нікопольський район","aliases":[],"center":[47.7549,34.4928]},"geometry":{"type":"Polygon","coordinates":[[[34.2994,47.5187],[34.2353,47.4945],[34.1109,47.4739],[34.1093,47.5526],[34.0772,47.5531],[34.0465,47.5698],[34.0541,47.5761],[34.0753,47.5764],[34.0833,47.5845],[34.0782,47.5846],[34.0788,47.5908],[34.0888,47.5968],[34.0513,47.6144],[34.0688,47.6346],[34.0439,47.6349],[34.0242,47.6495],[34.0452,47.6599],[34.0524,47.6539],[34.054,47.6583],[34.0414,47.6685],[33.9831,47.6654],[33.9367,47.6941],[33.9286,47.693],[33.937,47.7149],[33.9299,47.7203],[33.9568,47.7227],[33.9598,47.7429],[34.0213,47.7496],[34.0336,47.7712],[34.0671,47.7955],[34.065,47.8092],[34.0431,47.8069],[34.0251,47.8728],[34.003,47.872],[34.0073,47.8942],[33.9997,47.9029],[34.0163,47.9052],[34.0121,47.9286],[34.057,47.9327],[34.0605,47.9235],[34.0908,47.9477],[34.1228,47.9393],[34.1421,47.9417],[34.1448,47.9538],[34.1615,47.9672],[34.1844,47.9705],[34.1863,47.9621],[34.2276,47.9623],[34.2377,47.9637],[34.2351,47.9755],[34.3014,47.9793],[34.3066,47.9491],[34.3193,47.9305],[34.3374,47.9334],[34.3418,47.9194],[34.4082,47.9281],[34.4077,47.9339],[34.3755,47.9293],[34.3737,47.9393],[34.4194,47.9441],[34.4176,47.9518],[34.4404,47.9537],[34.4529,47.9243],[34.4945,47.9288],[34.4934,47.9355],[34.5324,47.94],[34.5313,47.9512],[34.5906,47.9625],[34.5871,47.9797],[34.6097,47.9821],[34.6029,48.0136],[34.7309,48.0262],[34.7438,47.9858],[34.769,47.9955],[34.8207,47.9968],[34.8199,48.0104],[34.859,48.0152],[34.8705,47.9831],[34.9055,47.9852],[34.9163,47.9342],[34.88,47.9289],[34.8771,47.942],[34.8496,47.9372],[34.8536,47.9217],[34.8027,47.9161],[34.8175,47.8647],[34.8635,47.8799],[34.8705,47.8517],[34.8974,47.8531],[34.9031,47.831],[34.8793,47.8207],[34.8939,47.7601],[34.9576,47.7698],[34.9645,47.7413],[34.9544,47.7402],[34.9561,47.7127],[34.9308,47.7118],[34.9382,47.6775],[34.9067,47.674],[34.916,47.6347],[34.932,47.6362],[34.9401,47.6032],[34.936,47.5921],[34.9256,47.5949],[34.9357,47.5834],[34.9275,47.5803],[34.9382,47.5809],[34.945,47.5744],[34.9344,47.5669],[34.9482,47.5712],[34.9596,47.5656],[34.9625,47.543],[34.9399,47.5266],[34.8777,47.5148],[34.8018,47.5367],[34.7332,47.5395],[34.6541,47.5594],[34.6007,47.5624],[34.5344,47.5565],[34.4698,47.5314],[34.2994,47.5187]]]}},{"type":"Feature","properties":{"name":"Кам'янський район","aliases":[],"center":[48.4792,34.12]},"geometry":{"type":"Polygon","coordinates":[[[34.196,48.0681],[34.202,48.0564],[34.1874,48.0565],[34.1833,48.0682],[34.1776,48.0683],[34.1831,48.0759],[34.1568,48.0723],[34.1102,48.1022],[34.0847,48.102],[34.0588,48.1513],[34.0163,48.1417],[34.0044,48.185],[33.9654,48.188],[33.966,48.1831],[33.9357,48.1793],[33.9453,48.1882],[33.9415,48.2017],[33.9299,48.201],[33.923,48.2235],[33.8853,48.2193],[33.8754,48.2592],[33.8396,48.2593],[33.8328,48.2515],[33.8119,48.2559],[33.8079,48.263],[33.7798,48.2573],[33.771,48.2863],[33.7397,48.2822],[33.7469,48.2623],[33.7404,48.2586],[33.6845,48.2506],[33.6744,48.2508],[33.6692,48.2603],[33.6381,48.256],[33.6226,48.2498],[33.6259,48.2444],[33.6002,48.24],[33.5938,48.2625],[33.6224,48.2916],[33.6139,48.3173],[33.5849,48.3165],[33.5755,48.3139],[33.5713,48.304],[33.5775,48.2523],[33.5464,48.2375],[33.5344,48.2559],[33.5314,48.2765],[33.5136,48.2788],[33.5185,48.2846],[33.5093,48.2932],[33.5165,48.3285],[33.5039,48.3322],[33.4707,48.3257],[33.4761,48.3485],[33.4602,48.3538],[33.4593,48.3594],[33.4745,48.3695],[33.4682,48.3705],[33.4701,48.3865],[33.4977,48.3938],[33.4969,48.4043],[33.4872,48.4042],[33.4898,48.4264],[33.4692,48.5336],[33.4802,48.536],[33.4721,48.5457],[33.4834,48.5486],[33.4821,48.5569],[33.5101,48.5576],[33.5095,48.5684],[33.5838,48.5754],[33.589,48.5602],[33.6217,48.5671],[33.6097,48.5988],[33.6492,48.5992],[33.6586,48.5863],[33.7235,48.6145],[33.7428,48.6154],[33.7615,48.625],[33.7586,48.6426],[33.7637,48.6431],[33.7552,48.6563],[33.8004,48.6619],[33.8043,48.6879],[33.7504,48.6814],[33.7466,48.694],[33.7297,48.6924],[33.6831,48.7228],[33.6197,48.7268],[33.6078,48.7523],[33.5928,48.748],[33.5858,48.7541],[33.5779,48.7789],[33.5883,48.7809],[33.5823,48.7967],[33.6025,48.7991],[33.6053,48.7921],[33.6186,48.789],[33.655,48.7926],[33.6731,48.8151],[33.6908,48.8091],[33.7154,48.8137],[33.7236,48.7872],[33.7631,48.7977],[33.7711,48.7983],[33.7727,48.7919],[33.795,48.7941],[33.7922,48.8001],[33.8096,48.8029],[33.8191,48.7765],[33.8483,48.7715],[33.8524,48.7789],[33.8486,48.8017],[33.8625,48.8366],[33.8752,48.8433],[33.8919,48.903],[33.9272,48.88],[33.9847,48.8651],[34.0227,48.864],[34.0371,48.8422],[34.0746,48.8237],[34.1196,48.8227],[34.128,48.8141],[34.1217,48.7913],[34.1403,48.7782],[34.1746,48.7789],[34.203,48.7601],[34.2342,48.7563],[34.2487,48.7441],[34.2807,48.7446],[34.2973,48.7382],[34.2922,48.7239],[34.2975,48.7127],[34.3529,48.7012],[34.3601,48.6906],[34.353,48.6779],[34.3568,48.6706],[34.399,48.6485],[34.4368,48.6409],[34.4408,48.6152],[34.4586,48.5965],[34.515,48.5792],[34.5454,48.5549],[34.5588,48.583],[34.5309,48.6033],[34.554,48.6137],[34.5645,48.6098],[34.6006,48.6296],[34.6135,48.6214],[34.6117,48.6074],[34.6327,48.6007],[34.6361,48.5889],[34.5718,48.584],[34.5691,48.5595],[34.5814,48.5538],[34.5845,48.5432],[34.6804,48.5352],[34.7332,48.5001],[34.7665,48.4912],[34.7652,48.4851],[34.7513,48.4839],[34.7695,48.4744],[34.7595,48.453],[34.7608,48.4399],[34.7431,48.4408],[34.7245,48.4638],[34.7018,48.4718],[34.7012,48.4534],[34.7119,48.4472],[34.7009,48.4382],[34.6836,48.4433],[34.6943,48.4517],[34.6725,48.4641],[34.656,48.4639],[34.6635,48.4669],[34.6584,48.4727],[34.6415,48.4668],[34.6438,48.4564],[34.6317,48.4584],[34.6309,48.4521],[34.6263,48.4576],[34.5896,48.4509],[34.5575,48.463],[34.5526,48.4568],[34.5127,48.4573],[34.5109,48.4416],[34.5359,48.4404],[34.5349,48.4264],[34.5508,48.4273],[34.562,48.4205],[34.5981,48.3334],[34.5689,48.326],[34.574,48.3214],[34.5704,48.3187],[34.5927,48.3086],[34.6066,48.2898],[34.5859,48.2834],[34.5915,48.2539],[34.5645,48.252],[34.5578,48.2724],[34.5288,48.2728],[34.5313,48.2655],[34.5179,48.2675],[34.5081,48.2551],[34.474,48.2645],[34.4619,48.2413],[34.4546,48.245],[34.4557,48.2368],[34.4267,48.2341],[34.4351,48.1966],[34.4027,48.1934],[34.399,48.207],[34.3829,48.2063],[34.3944,48.1603],[34.4389,48.1651],[34.4384,48.1724],[34.4541,48.1688],[34.4438,48.1558],[34.4105,48.1547],[34.4102,48.142],[34.4268,48.1401],[34.4292,48.1293],[34.3889,48.1263],[34.3818,48.1203],[34.3755,48.1308],[34.2958,48.1164],[34.2809,48.1094],[34.29,48.0787],[34.2322,48.0672],[34.2283,48.0727],[34.196,48.0681]]]}},{"type":"Feature","properties":{"name":"Павлоградський район","aliases":[],"center":[48.6456,35.9141]},"geometry":{"type":"Polygon","coordinates":[[[35.8149,48.3128],[35.7851,48.3095],[35.7879,48.286],[35.7586,48.293],[35.7539,48.2996],[35.7643,48.3075],[35.7533,48.311],[35.7541,48.3159],[35.7485,48.3134],[35.756,48.321],[35.7487,48.3302],[35.7569,48.3363],[35.7354,48.3349],[35.7392,48.3381],[35.7281,48.3408],[35.7203,48.3347],[35.7018,48.3347],[35.6792,48.3606],[35.6999,48.3692],[35.6915,48.3798],[35.7019,48.3832],[35.7155,48.3684],[35.7483,48.3862],[35.7333,48.4006],[35.7836,48.4048],[35.7767,48.427],[35.7927,48.4361],[35.748,48.4722],[35.7328,48.4654],[35.7257,48.4719],[35.7069,48.4615],[35.6706,48.4912],[35.6479,48.4784],[35.6154,48.5109],[35.6384,48.5234],[35.6193,48.5463],[35.6063,48.5434],[35.6103,48.5294],[35.5597,48.5202],[35.5657,48.5043],[35.5336,48.4988],[35.5204,48.5323],[35.5532,48.5388],[35.5258,48.5997],[35.5553,48.5952],[35.55,48.6187],[35.5443,48.6177],[35.5469,48.6314],[35.5632,48.6298],[35.5673,48.6376],[35.5552,48.6425],[35.5928,48.6633],[35.5824,48.6691],[35.6033,48.6843],[35.5994,48.6875],[35.6185,48.7015],[35.6425,48.705],[35.675,48.7337],[35.6768,48.7605],[35.6608,48.7693],[35.6824,48.7949],[35.6705,48.8021],[35.6794,48.8111],[35.647,48.8308],[35.6691,48.8482],[35.6797,48.8426],[35.6854,48.847],[35.6504,48.8694],[35.6395,48.869],[35.6368,48.8823],[35.6436,48.8821],[35.6439,48.888],[35.6804,48.8822],[35.7284,48.8873],[35.7572,48.8859],[35.7548,48.8763],[35.8079,48.876],[35.8156,48.8929],[35.8115,48.8935],[35.813,48.9234],[35.8186,48.9245],[35.8075,48.94],[35.83,48.9508],[35.8561,48.9466],[35.8542,48.9571],[35.8788,48.963],[35.8835,48.9753],[35.9122,48.969],[35.9355,48.973],[35.9406,48.9773],[35.9297,48.9802],[35.94,48.9998],[35.9893,48.9701],[35.9769,48.9603],[36.0045,48.9455],[35.9953,48.9399],[36.0436,48.9166],[36.0121,48.8873],[36.0402,48.8736],[36.0205,48.8543],[36.077,48.835],[36.0686,48.8083],[36.1244,48.8083],[36.157,48.7848],[36.1525,48.7811],[36.1573,48.7682],[36.1404,48.7655],[36.1631,48.749],[36.1428,48.7242],[36.2836,48.6592],[36.2677,48.6487],[36.2666,48.6358],[36.2516,48.6218],[36.3186,48.5872],[36.2721,48.5443],[36.2958,48.5323],[36.2091,48.4461],[36.2022,48.4486],[36.1873,48.4361],[36.1554,48.4429],[36.1108,48.4195],[36.1096,48.4251],[36.0999,48.4264],[36.1042,48.4422],[36.0462,48.4582],[36.103,48.3504],[35.8905,48.4094],[35.8664,48.4028],[35.8836,48.3909],[35.8406,48.3854],[35.8389,48.3801],[35.8239,48.3769],[35.8275,48.357],[35.8058,48.3548],[35.8149,48.3128]]]}}]}